[{"OBJECT_NAME":"TIANQI-24","OBJECT_ID":"2023-135D","EPOCH":"2026-03-09T20:57:37.180800","MEAN_MOTION":14.23089643,"ECCENTRICITY":0.00134171,"INCLINATION":49.9722,"RA_OF_ASC_NODE":210.6392,"ARG_OF_PERICENTER":273.0428,"MEAN_ANOMALY":86.8949,"EPHEMERIS_TYPE":0,"CLASSIFICATION_TYPE":"U","NORAD_CAT_ID":57795,"ELEMENT_SET_NO":999,"REV_AT_EPOCH":13048,"BSTAR":0.00014051861,"MEAN_MOTION_DOT":1.6e-6,"MEAN_MOTION_DDOT":0},{"OBJECT_NAME":"SL-14 DEB","OBJECT_ID":"1991-056AF","EPOCH":"2026-03-09T21:38:20.213376","MEAN_MOTION":14.41820026,"ECCENTRICITY":0.01245176,"INCLINATION":82.5108,"RA_OF_ASC_NODE":25.9889,"ARG_OF_PERICENTER":45.4758,"MEAN_ANOMALY":315.6524,"EPHEMERIS_TYPE":0,"CLASSIFICATION_TYPE":"U","NORAD_CAT_ID":45293,"ELEMENT_SET_NO":999,"REV_AT_EPOCH":30495,"BSTAR":0.02485255,"MEAN_MOTION_DOT":0.00090171,"MEAN_MOTION_DDOT":0}]
